H-2A R/B                
1 28932U 06002B   26185.71842174  .00015184  00000+0  71890-3 0  9994
2 28932  98.2587 343.1375 0050158 201.7855 158.1245 15.18323252112189
RESURS-DK 1             
1 29228U 06021A   26185.55233613  .00003220  00000+0  18643-3 0  9993
2 29228  69.9337 294.6009 0006707 282.9755  77.0662 15.13292377105206
CZ-4B R/B               
1 29507U 06046C   26185.59110517  .00007135  00000+0  35055-3 0  9996
2 29507  97.5438 230.1446 0031613 219.4956 140.3974 15.17921432 77772
CZ-2C R/B               
1 31114U 07010B   26185.74246899  .00000138  00000+0  82434-4 0  9995
2 31114  98.4112 293.2360 0058064 314.7288  44.9171 14.20280292996334
COSMO-SKYMED 1          
1 31598U 07023A   26185.98000660  .00002978  00000+0  26278-3 0  9992
2 31598  97.8851  17.9862 0001127  84.0422 276.0927 14.97189037 32456
COSMOS 2428             
1 31792U 07029A   26185.63029015  .00000121  00000+0  90553-4 0  9997
2 31792  70.9380 317.8526 0007150 101.6390 258.5534 14.12929556980616
SL-16 R/B               
1 31793U 07029B   26185.56242383 -.00000200  00000+0 -78695-4 0  9998
2 31793  70.9763 286.7040 0002320 260.4889 110.4732 14.14852190981908
KORONAS-FOTON           
1 33504U 09003A   26185.87909688  .00019038  00000+0  38655-3 0  9994
2 33504  82.4302 153.7985 0012587  93.7739 266.4950 15.46116868963832
CZ-2C R/B               
1 37731U 11030B   26185.62265258  .00001771  00000+0  22760-3 0  9999
2 37731  97.8663 140.6952 0051528 331.3224 202.2500 14.81517665807402
H-2A R/B                
1 38341U 12025E   26185.88440134  .00004285  00000+0  38328-3 0  9998
2 38341  98.4838 162.4904 0042203 289.8009  69.8662 14.95809618765730
SHIJIAN-16 (SJ-16)      
1 39358U 13057A   26185.93442354  .00001707  00000+0  16804-3 0  9996
2 39358  74.9741 323.0673 0016225 189.3501 170.7388 14.92647125688994
SL-4 R/B                
1 39679U 14021B   26185.81975986  .00020074  00000+0  40283-3 0  9999
2 39679  51.6058 124.3674 0090267 170.3652 189.9091 15.42323605674337
ALOS-2                  
1 39766U 14029A   26184.77685350  .00001480  00000+0  20504-3 0  9995
2 39766  97.9231 281.7034 0001643  89.0013 271.1387 14.79475407654039
YAOGAN-29               
1 41038U 15069A   26185.98930096  .00000665  00000+0  88258-4 0  9994
2 41038  98.0017 214.6497 0001543  28.8790 331.2509 14.83101586573266
ASTRO-H (HITOMI)        
1 41337U 16012A   26185.74339819  .00004247  00000+0  24502-3 0  9996
2 41337  31.0003 320.7997 0009565  69.4595 290.7069 15.10599781569949
HXMT (HUIYAN)           
1 42758U 17034A   26185.95962891  .00007248  00000+0  35017-3 0  9991
2 42758  43.0141  84.0703 0032816 258.4181 101.2983 15.18621519500369
SAOCOM 1A               
1 43641U 18076A   26185.95881838  .00001187  00000+0  15559-3 0  9996
2 43641  97.8883  12.4486 0001575  80.4935 279.6456 14.82164984418734
H-2A R/B                
1 43682U 18084L   26185.60947727  .00042251  00000+0  86127-3 0  9998
2 43682  98.8545  68.3133 0021313 339.4411  20.5974 15.45870427423811
SAOCOM 1B               
1 46265U 20059A   26185.99004382  .00000247  00000+0  37636-4 0  9997
2 46265  97.8886  11.5749 0001552  79.9322 280.2066 14.82151590316126
CSS (TIANHE)            
1 48274U 21035A   26184.22810215  .00007882  00000+0  10678-3 0  9997
2 48274  41.4672 224.3616 0002880 262.1202  97.9309 15.57904594295673
COSMOS 2550             
1 48865U 21056A   26185.95620346  .00007804  00000+0  24337-3 0  9992
2 48865  67.1431  46.1556 0008399 273.1014  86.9179 15.33752453281446
CZ-2C R/B               
1 52794U 22058K   26184.99820831  .00044827  00000+0  47352-3 0  9993
2 52794  50.1860  75.9700 0031340 336.5094  23.4447 15.63075745228276
CZ-2C R/B               
1 54039U 22132E   26185.46084269  .00103724  00000+0  72863-3 0  9997
2 54039  97.2894 193.2816 0011972  26.6614 333.5263 15.73754604208666
GSLV R/B                
1 54149U 22138AN  26185.56100787  .00004287  00000+0  36485-3 0  9994
2 54149  87.3812 127.1501 0024216  86.8647 273.5356 14.97345531201416
XRISM                   
1 57800U 23137A   26185.54648538  .00006937  00000+0  38160-3 0  9996
2 57800  31.0014 247.1450 0007776 139.1383 220.9840 15.12620129155497
ACS3                    
1 59588U 24077B   26185.71277862  .00085488  00000+0  59662-1 0  9998
2 59588  97.1711 100.6073 0110832  48.0887 312.9667 13.95048038110489
SPACEMOBILE-003         
1 61045U 24163A   26177.81235899  .00001689  00000+0  90246-4 0  9998
2 61045  52.9744 265.1828 0005991 141.0621 219.0806 15.20822722 99230
SPACEMOBILE-005         
1 61046U 24163B   26185.81310608  .00017795  00000+0  80771-3 0  9996
2 61046  52.9796 228.3249 0008760 166.8863 193.2360 15.20856066100448
SPACEMOBILE-001         
1 61047U 24163C   26185.41740333  .00003281  00000+0  16130-3 0  9998
2 61047  52.9761 229.8615 0007551 159.3409 200.7892 15.20841602100381
SPACEMOBILE-002         
1 61048U 24163D   26185.40149808  .00011615  00000+0  53271-3 0  9995
2 61048  52.9739 229.9760 0007070 160.7440 199.3822 15.20870296100383
